PROGRESS-MS 33          
1 68319U 26058A   26105.87667374  .00005471  00000+0  10765-3 0  9998
2 68319  51.6326 248.4785 0006598 317.1782  42.8691 15.48928061  3161
CYGNUS NG-24            
1 68689U 26079A   26105.87667374  .00005471  00000+0  10765-3 0  9991
2 68689  51.6326 248.4785 0006598 317.1782  42.8691 15.48928061   629
